[ {"name": "STARLINK-1496", "line1": "1 45780U 20038BC  26169.37984191  .00063747  00000+0  52113-3 0  9994", "line2": "2 45780  53.0457  49.0828 0000727 235.7342 124.3606 15.69977758332704"}, {"name": "STARLINK-1513", "line1": "1 45786U 20038BJ  26169.47311003 -.00000568  00000+0 -65300-5 0  9995", "line2": "2 45786  53.1603  82.3323 0001232  90.9985 269.1157 15.31698634332284"}, {"name": "STARLINK-1522", "line1": "1 46027U 20055A   26169.32848418  .00016566  00000+0  92701-3 0  9998", "line2": "2 46027  53.0628  31.3018 0002562  82.9062 277.2222 15.13582872324109"}, {"name": "STARLINK-1523", "line1": "1 46028U 20055B   26169.29818608  .00031669  00000+0  10476-2 0  9992", "line2": "2 46028  53.1625  19.3393 0000206 131.6730 228.4289 15.31089578324305"}, {"name": "STARLINK-1526", "line1": "1 46029U 20055C   26169.75002315 -.00022998  00000+0 -73122-3 0  9999", "line2": "2 46029  53.1580  17.2733 0001374  97.3749 254.7870 15.31715304  5831"}, {"name": "STARLINK-1555", "line1": "1 46032U 20055F   26169.01937013  .00072112  00000+0  23995-2 0  9997", "line2": "2 46032  53.1593  20.6728 0001459 103.2753 256.8411 15.30520228324259"}, {"name": "STARLINK-1556", "line1": "1 46033U 20055G   26169.75002315 -.00018098  00000+0 -57258-3 0  9992", "line2": "2 46033  53.1596  17.2729 0000892  84.2241  87.9613 15.31715354  5830"}, {"name": "STARLINK-1557", "line1": "1 46034U 20055H   26169.00588959  .00002519  00000+0  97168-4 0  9998", "line2": "2 46034  53.1592  20.7501 0001057  83.3105 276.8016 15.30194771324223"}, {"name": "STARLINK-1558", "line1": "1 46035U 20055J   26168.88263189  .00001683  00000+0  68952-4 0  9999", "line2": "2 46035  53.1578  21.3281 0001233 142.6896 217.4191 15.30195426324236"}, {"name": "STARLINK-1560", "line1": "1 46036U 20055K   26168.99956945  .00000458  00000+0  27582-4 0  9994", "line2": "2 46036  53.1601  20.7882 0000971  80.3916 279.7194 15.30197992324259"}, {"name": "STARLINK-1569", "line1": "1 46039U 20055N   26169.75002315 -.00023477  00000+0 -74676-3 0  9998", "line2": "2 46039  53.1592  17.2651 0001156  95.2571 359.7839 15.31715420  5887"}, {"name": "STARLINK-1582", "line1": "1 46043U 20055S   26169.02360690  .00009175  00000+0  30672-3 0  9991", "line2": "2 46043  53.1602  19.9550 0001551  91.6460 268.4719 15.31736792324250"}, {"name": "STARLINK-1591", "line1": "1 46045U 20055U   26169.75002315 -.00018208  00000+0 -57620-3 0  9991", "line2": "2 46045  53.1608  17.2672 0000979  96.5637 178.4274 15.31711964  5882"}, {"name": "STARLINK-1524", "line1": "1 46047U 20055W   26169.51495388  .00000887  00000+0  40348-4 0  9995", "line2": "2 46047  53.1605   4.9673 0000908 108.9041 251.2059 15.31704663324517"}, {"name": "STARLINK-1527", "line1": "1 46048U 20055X   26169.51028928  .00001133  00000+0  48244-4 0  9996", "line2": "2 46048  53.1597   4.9691 0000867  99.8443 260.2656 15.31712441324488"}, {"name": "STARLINK-1540", "line1": "1 46051U 20055AA  26169.69208603  .00003459  00000+0  12312-3 0  9998", "line2": "2 46051  53.1591   4.3346 0000968  78.9711 281.1399 15.31715372324555"}, {"name": "STARLINK-1541", "line1": "1 46052U 20055AB  26169.75002315  .00177724  00000+0  61286-3 0  9999", "line2": "2 46052  53.1560 343.5724 0007044 292.2155 253.5528 15.88532193  6032"}, {"name": "STARLINK-1543", "line1": "1 46053U 20055AC  26169.53359863  .00001597  00000+0  63224-4 0  9998", "line2": "2 46053  53.1607   4.8783 0001531  77.7835 282.3337 15.31698850324529"}, {"name": "STARLINK-1548", "line1": "1 46054U 20055AD  26168.96034044  .00002581  00000+0  94892-4 0  9995", "line2": "2 46054  53.1606   7.6212 0001067  78.7677 281.3444 15.31704703324439"}, {"name": "STARLINK-1554", "line1": "1 46055U 20055AE  26169.52894023  .00000230  00000+0  19164-4 0  9998", "line2": "2 46055  53.1612   4.9168 0001164  96.5164 263.5970 15.31704519324525"}, {"name": "STARLINK-1564", "line1": "1 46058U 20055AH  26168.87583451 -.00000031  00000+0  11076-4 0  9992", "line2": "2 46058  53.1616   9.0157 0001340  80.0360 280.0792 15.30185812324409"}, {"name": "STARLINK-1570", "line1": "1 46059U 20055AJ  26169.68738266  .00000504  00000+0  27998-4 0  9993", "line2": "2 46059  53.1603   4.0619 0000988  82.6210 277.4904 15.31710496324502"}, {"name": "STARLINK-1572", "line1": "1 46060U 20055AK  26168.98745684  .00000206  00000+0  19060-4 0  9999", "line2": "2 46060  53.1603   8.2396 0000877  94.0817 266.0284 15.30198301324395"}, {"name": "STARLINK-1573", "line1": "1 46061U 20055AL  26169.28190200  .00003562  00000+0  12648-3 0  9994", "line2": "2 46061  53.1618   5.9167 0001033  60.8213 299.2892 15.31701724324481"}, {"name": "STARLINK-1577", "line1": "1 46063U 20055AN  26169.70136088  .00002092  00000+0  79116-4 0  9998", "line2": "2 46063  53.1596   3.9592 0001107  87.1383 272.9745 15.31712641324542"}, {"name": "STARLINK-1583", "line1": "1 46064U 20055AP  26168.86716597 -.00000082  00000+0  91226-5 0  9999", "line2": "2 46064  53.1603   8.3472 0001243  92.1242 267.9902 15.31696611324401"}, {"name": "STARLINK-1536", "line1": "1 46070U 20055AV  26168.93370330  .00003645  00000+0  12914-3 0  9997", "line2": "2 46070  53.1592 355.4234 0000846  95.0660 265.0438 15.31707130324593"}, {"name": "STARLINK-1542", "line1": "1 46073U 20055AY  26169.54532382  .00002435  00000+0  90172-4 0  9994", "line2": "2 46073  53.1589 355.5404 0000980 104.3946 255.7164 15.31707714324637"}, {"name": "STARLINK-1549", "line1": "1 46074U 20055AZ  26168.93042535  .00030383  00000+0  10357-2 0  9991", "line2": "2 46074  53.0511 355.5881 0002266 167.0087 193.0972 15.30136035324566"}, {"name": "STARLINK-1551", "line1": "1 46075U 20055BA  26169.51195693 -.00004351  00000+0 -12838-3 0  9996", "line2": "2 46075  53.1613 352.6673 0000906  67.7727 292.3370 15.31733655324673"}]