OBJECT_NAME,OBJECT_ID,EPOCH,MEAN_MOTION,ECCENTRICITY,INCLINATION,RA_OF_ASC_NODE,ARG_OF_PERICENTER,MEAN_ANOMALY,EPHEMERIS_TYPE,CLASSIFICATION_TYPE,NORAD_CAT_ID,ELEMENT_SET_NO,REV_AT_EPOCH,BSTAR,MEAN_MOTION_DOT,MEAN_MOTION_DDOT
STARLINK-1496,2020-038BC,2026-06-18T09:06:58.341024,15.69977758,.0000727,53.0457,49.0828,235.7342,124.3606,0,U,45780,999,33270,.52113E-3,.63747E-3,0
STARLINK-1513,2020-038BJ,2026-06-18T11:21:16.706592,15.31698634,.0001232,53.1603,82.3323,90.9985,269.1157,0,U,45786,999,33228,-.653E-5,-.568E-5,0
STARLINK-1522,2020-055A,2026-06-18T07:53:01.033152,15.13582872,.0002562,53.0628,31.3018,82.9062,277.2222,0,U,46027,999,32410,.92701E-3,.16566E-3,0
STARLINK-1523,2020-055B,2026-06-18T07:09:23.277312,15.31089578,.0000206,53.1625,19.3393,131.6730,228.4289,0,U,46028,999,32430,.10476E-2,.31669E-3,0
STARLINK-1526,2020-055C,2026-06-18T18:00:02.000160,15.31715304,.0001374,53.1580,17.2733,97.3749,254.7870,0,U,46029,999,583,-.73122E-3,-.22998E-3,0
STARLINK-1555,2020-055F,2026-06-18T00:27:53.579232,15.30520228,.00014592,53.1593,20.6728,103.2753,256.8411,0,U,46032,999,32425,.2399475E-2,.72112E-3,0
STARLINK-1556,2020-055G,2026-06-18T18:00:02.000160,15.31715354,.0000892,53.1596,17.2729,84.2241,87.9613,0,U,46033,999,583,-.57258E-3,-.18098E-3,0
STARLINK-1557,2020-055H,2026-06-18T00:08:28.860576,15.30194771,.00010577,53.1592,20.7501,83.3105,276.8016,0,U,46034,999,32422,.97168216E-4,.2519E-4,0
STARLINK-1558,2020-055J,2026-06-17T21:10:59.395296,15.30195426,.00012339,53.1578,21.3281,142.6896,217.4191,0,U,46035,999,32423,.68951502E-4,.1683E-4,0
STARLINK-1560,2020-055K,2026-06-17T23:59:22.800480,15.30197992,.00009719,53.1601,20.7882,80.3916,279.7194,0,U,46036,999,32425,.27582291E-4,.458E-5,0
STARLINK-1569,2020-055N,2026-06-18T18:00:02.000160,15.31715420,.0001156,53.1592,17.2651,95.2571,359.7839,0,U,46039,999,588,-.74676E-3,-.23477E-3,0
STARLINK-1582,2020-055S,2026-06-18T00:33:59.636160,15.31736792,.00015518,53.1602,19.9550,91.6460,268.4719,0,U,46043,999,32425,.30671674E-3,.9175E-4,0
STARLINK-1591,2020-055U,2026-06-18T18:00:02.000160,15.31711964,.0000979,53.1608,17.2672,96.5637,178.4274,0,U,46045,999,588,-.5762E-3,-.18208E-3,0
STARLINK-1524,2020-055W,2026-06-18T12:21:32.015232,15.31704663,.0000908,53.1605,4.9673,108.9041,251.2059,0,U,46047,999,32451,.40348E-4,.887E-5,0
STARLINK-1527,2020-055X,2026-06-18T12:14:48.993792,15.31712441,.0000867,53.1597,4.9691,99.8443,260.2656,0,U,46048,999,32448,.48244E-4,.1133E-4,0
STARLINK-1540,2020-055AA,2026-06-18T16:36:36.232992,15.31715372,.0000968,53.1591,4.3346,78.9711,281.1399,0,U,46051,999,32455,.12312E-3,.3459E-4,0
STARLINK-1541,2020-055AB,2026-06-18T18:00:02.000160,15.88532193,.0007044,53.1560,343.5724,292.2155,253.5528,0,U,46052,999,603,.61286E-3,.177724E-2,0
STARLINK-1543,2020-055AC,2026-06-18T12:48:22.921632,15.31698850,.0001531,53.1607,4.8783,77.7835,282.3337,0,U,46053,999,32452,.63224E-4,.1597E-4,0
STARLINK-1548,2020-055AD,2026-06-17T23:02:53.414016,15.31704703,.00010675,53.1606,7.6212,78.7677,281.3444,0,U,46054,999,32443,.94892386E-4,.2581E-4,0
STARLINK-1554,2020-055AE,2026-06-18T12:41:40.435872,15.31704519,.0001164,53.1612,4.9168,96.5164,263.5970,0,U,46055,999,32452,.19164E-4,.23E-5,0
STARLINK-1564,2020-055AH,2026-06-17T21:01:12.101664,15.30185812,.00013402,53.1616,9.0157,80.0360,280.0792,0,U,46058,999,32440,.11076227E-4,-.31E-6,0
STARLINK-1570,2020-055AJ,2026-06-18T16:29:49.861824,15.31710496,.0000988,53.1603,4.0619,82.6210,277.4904,0,U,46059,999,32450,.27998E-4,.504E-5,0
STARLINK-1572,2020-055AK,2026-06-17T23:41:56.270976,15.30198301,.00008778,53.1603,8.2396,94.0817,266.0284,0,U,46060,999,32439,.19059666E-4,.206E-5,0
STARLINK-1573,2020-055AL,2026-06-18T06:45:56.332800,15.31701724,.0001033,53.1618,5.9167,60.8213,299.2892,0,U,46061,999,32448,.12648E-3,.3562E-4,0
STARLINK-1577,2020-055AN,2026-06-18T16:49:57.580032,15.31712641,.0001107,53.1596,3.9592,87.1383,272.9745,0,U,46063,999,32454,.79116E-4,.2092E-4,0
STARLINK-1583,2020-055AP,2026-06-17T20:48:43.139808,15.31696611,.00012435,53.1603,8.3472,92.1242,267.9902,0,U,46064,999,32440,.9122631E-5,-.82E-6,0
STARLINK-1536,2020-055AV,2026-06-17T22:24:31.965120,15.31707130,.0000846,53.1592,355.4234,95.0660,265.0438,0,U,46070,999,32459,.12913747E-3,.3645E-4,0
STARLINK-1542,2020-055AY,2026-06-18T13:05:15.978048,15.31707714,.000098,53.1589,355.5404,104.3946,255.7164,0,U,46073,999,32463,.90172E-4,.2435E-4,0
STARLINK-1549,2020-055AZ,2026-06-17T22:19:48.750240,15.30136035,.00022663,53.0511,355.5881,167.0087,193.0972,0,U,46074,999,32456,.1035683E-2,.30383E-3,0
STARLINK-1551,2020-055BA,2026-06-18T12:17:13.078752,15.31733655,.0000906,53.1613,352.6673,67.7727,292.3370,0,U,46075,999,32467,-.12838E-3,-.4351E-4,0
